{
  "type": "FeatureCollection",
  "name": "pt_bsl_sipongi_hotspot_30days",
  "properties": {
    "pt_id": "pt_bsl",
    "pt_name": "PT Bintang Sawit Lestari",
    "period_start": "2026-08-31",
    "period_end": "2026-09-29",
    "radius_km": 5
  },
  "features": [
    {
      "type": "Feature",
      "geometry": {
        "type": "Point",
        "coordinates": [
          111.07049,
          -0.14484
        ]
      },
      "properties": {
        "confidence": "low",
        "confidence_value": null,
        "sumber": "NASA-SNPP",
        "date_hotspot": "Selasa, 01 September 2026 13:03:00",
        "date_hotspot_ori": "2026-09-01T06:03:00.000000Z",
        "provinsi": null,
        "kabkota": "Sekadau",
        "desa": "Nanga Pembubuh",
        "hs_id": "2026-09-01T06:03:00.000000Z",
        "provinsi_id": 11,
        "long": 111.07049,
        "ori_sumber": null,
        "desa_id": null,
        "counter": 1,
        "confidence_level": "low",
        "kawasan": "",
        "kecamatan": "Sekadau Hulu",
        "nama_provinsi": "Kalimantan Barat",
        "pulau": "",
        "route_create": "https://opsroom.sipongidata.my.id/daops/laporan/groundcheck/create/form",
        "hotspot_date": "2026-09-01",
        "distance_hgu_km": 4.503,
        "zone": "3–5 km",
        "location_status": "OUTSIDE HGU"
      }
    },
    {
      "type": "Feature",
      "geometry": {
        "type": "Point",
        "coordinates": [
          111.06977,
          -0.15662
        ]
      },
      "properties": {
        "confidence": "medium",
        "confidence_value": null,
        "sumber": "NASA-MODIS",
        "date_hotspot": "Senin, 14 September 2026 15:20:00",
        "date_hotspot_ori": "2026-09-14T08:20:00.000000Z",
        "provinsi": null,
        "kabkota": "Sekadau",
        "desa": "Tapang Perodah",
        "hs_id": "2026-09-14T08:20:00.000000Z",
        "provinsi_id": 11,
        "long": 111.06977,
        "ori_sumber": null,
        "desa_id": null,
        "counter": 1,
        "confidence_level": "medium",
        "kawasan": "",
        "kecamatan": "Sekadau Hulu",
        "nama_provinsi": "Kalimantan Barat",
        "pulau": "",
        "route_create": "https://opsroom.sipongidata.my.id/daops/laporan/groundcheck/create/form",
        "hotspot_date": "2026-09-14",
        "distance_hgu_km": 3.238,
        "zone": "3–5 km",
        "location_status": "OUTSIDE HGU"
      }
    },
    {
      "type": "Feature",
      "geometry": {
        "type": "Point",
        "coordinates": [
          111.02731,
          -0.19516
        ]
      },
      "properties": {
        "confidence": "medium",
        "confidence_value": null,
        "sumber": "NASA-MODIS",
        "date_hotspot": "Selasa, 01 September 2026 15:16:00",
        "date_hotspot_ori": "2026-09-01T08:16:00.000000Z",
        "provinsi": null,
        "kabkota": "Sekadau",
        "desa": "Tapang Perodah",
        "hs_id": "2026-09-01T08:16:00.000000Z",
        "provinsi_id": 11,
        "long": 111.02731,
        "ori_sumber": null,
        "desa_id": null,
        "counter": 1,
        "confidence_level": "medium",
        "kawasan": "",
        "kecamatan": "Sekadau Hulu",
        "nama_provinsi": "Kalimantan Barat",
        "pulau": "",
        "route_create": "https://opsroom.sipongidata.my.id/daops/laporan/groundcheck/create/form",
        "hotspot_date": "2026-09-01",
        "distance_hgu_km": 0.0,
        "zone": "Inside HGU",
        "location_status": "INSIDE HGU"
      }
    },
    {
      "type": "Feature",
      "geometry": {
        "type": "Point",
        "coordinates": [
          111.02896,
          -0.17696
        ]
      },
      "properties": {
        "confidence": "medium",
        "confidence_value": null,
        "sumber": "NASA-MODIS",
        "date_hotspot": "Minggu, 06 September 2026 15:09:00",
        "date_hotspot_ori": "2026-09-06T08:09:00.000000Z",
        "provinsi": null,
        "kabkota": "Sekadau",
        "desa": "Tapang Perodah",
        "hs_id": "2026-09-06T08:09:00.000000Z",
        "provinsi_id": 11,
        "long": 111.02896,
        "ori_sumber": null,
        "desa_id": null,
        "counter": 1,
        "confidence_level": "medium",
        "kawasan": "",
        "kecamatan": "Sekadau Hulu",
        "nama_provinsi": "Kalimantan Barat",
        "pulau": "",
        "route_create": "https://opsroom.sipongidata.my.id/daops/laporan/groundcheck/create/form",
        "hotspot_date": "2026-09-06",
        "distance_hgu_km": 1.183,
        "zone": "1–3 km",
        "location_status": "OUTSIDE HGU"
      }
    },
    {
      "type": "Feature",
      "geometry": {
        "type": "Point",
        "coordinates": [
          111.10535,
          -0.20855
        ]
      },
      "properties": {
        "confidence": "medium",
        "confidence_value": null,
        "sumber": "NASA-MODIS",
        "date_hotspot": "Senin, 31 Agustus 2026 19:59:00",
        "date_hotspot_ori": "2026-08-31T12:59:00.000000Z",
        "provinsi": null,
        "kabkota": "Sintang",
        "desa": "Sekubang",
        "hs_id": "2026-08-31T12:59:00.000000Z",
        "provinsi_id": 11,
        "long": 111.10535,
        "ori_sumber": null,
        "desa_id": null,
        "counter": 1,
        "confidence_level": "medium",
        "kawasan": "",
        "kecamatan": "Sepauk",
        "nama_provinsi": "Kalimantan Barat",
        "pulau": "",
        "route_create": "https://opsroom.sipongidata.my.id/daops/laporan/groundcheck/create/form",
        "hotspot_date": "2026-08-31",
        "distance_hgu_km": 3.695,
        "zone": "3–5 km",
        "location_status": "OUTSIDE HGU"
      }
    },
    {
      "type": "Feature",
      "geometry": {
        "type": "Point",
        "coordinates": [
          111.10449,
          -0.23917
        ]
      },
      "properties": {
        "confidence": "medium",
        "confidence_value": null,
        "sumber": "NASA-NOAA20",
        "date_hotspot": "Jumat, 11 September 2026 13:37:00",
        "date_hotspot_ori": "2026-09-11T06:37:00.000000Z",
        "provinsi": null,
        "kabkota": "Sintang",
        "desa": "Sekubang",
        "hs_id": "2026-09-11T06:37:00.000000Z",
        "provinsi_id": 11,
        "long": 111.10449,
        "ori_sumber": null,
        "desa_id": null,
        "counter": 1,
        "confidence_level": "medium",
        "kawasan": "",
        "kecamatan": "Sepauk",
        "nama_provinsi": "Kalimantan Barat",
        "pulau": "",
        "route_create": "https://opsroom.sipongidata.my.id/daops/laporan/groundcheck/create/form",
        "hotspot_date": "2026-09-11",
        "distance_hgu_km": 4.54,
        "zone": "3–5 km",
        "location_status": "OUTSIDE HGU"
      }
    },
    {
      "type": "Feature",
      "geometry": {
        "type": "Point",
        "coordinates": [
          111.07239,
          -0.17193
        ]
      },
      "properties": {
        "confidence": "medium",
        "confidence_value": null,
        "sumber": "NASA-SNPP",
        "date_hotspot": "Minggu, 20 September 2026 13:50:00",
        "date_hotspot_ori": "2026-09-20T06:50:00.000000Z",
        "provinsi": null,
        "kabkota": "Sekadau",
        "desa": "Nanga Pembubuh",
        "hs_id": "2026-09-20T06:50:00.000000Z",
        "provinsi_id": 11,
        "long": 111.07239,
        "ori_sumber": null,
        "desa_id": null,
        "counter": 1,
        "confidence_level": "medium",
        "kawasan": "",
        "kecamatan": "Sekadau Hulu",
        "nama_provinsi": "Kalimantan Barat",
        "pulau": "",
        "route_create": "https://opsroom.sipongidata.my.id/daops/laporan/groundcheck/create/form",
        "hotspot_date": "2026-09-20",
        "distance_hgu_km": 1.949,
        "zone": "1–3 km",
        "location_status": "OUTSIDE HGU"
      }
    },
    {
      "type": "Feature",
      "geometry": {
        "type": "Point",
        "coordinates": [
          111.03507,
          -0.15629
        ]
      },
      "properties": {
        "confidence": "medium",
        "confidence_value": null,
        "sumber": "NASA-SNPP",
        "date_hotspot": "Senin, 31 Agustus 2026 13:22:00",
        "date_hotspot_ori": "2026-08-31T06:22:00.000000Z",
        "provinsi": null,
        "kabkota": "Sekadau",
        "desa": "Tapang Perodah",
        "hs_id": "2026-08-31T06:22:00.000000Z",
        "provinsi_id": 11,
        "long": 111.03507,
        "ori_sumber": null,
        "desa_id": null,
        "counter": 1,
        "confidence_level": "medium",
        "kawasan": "",
        "kecamatan": "Sekadau Hulu",
        "nama_provinsi": "Kalimantan Barat",
        "pulau": "",
        "route_create": "https://opsroom.sipongidata.my.id/daops/laporan/groundcheck/create/form",
        "hotspot_date": "2026-08-31",
        "distance_hgu_km": 2.972,
        "zone": "1–3 km",
        "location_status": "OUTSIDE HGU"
      }
    },
    {
      "type": "Feature",
      "geometry": {
        "type": "Point",
        "coordinates": [
          111.03255,
          -0.1734
        ]
      },
      "properties": {
        "confidence": "medium",
        "confidence_value": null,
        "sumber": "NASA-NOAA20",
        "date_hotspot": "Sabtu, 12 September 2026 13:18:00",
        "date_hotspot_ori": "2026-09-12T06:18:00.000000Z",
        "provinsi": null,
        "kabkota": "Sekadau",
        "desa": "Tapang Perodah",
        "hs_id": "2026-09-12T06:18:00.000000Z",
        "provinsi_id": 11,
        "long": 111.03255,
        "ori_sumber": null,
        "desa_id": null,
        "counter": 1,
        "confidence_level": "medium",
        "kawasan": "",
        "kecamatan": "Sekadau Hulu",
        "nama_provinsi": "Kalimantan Barat",
        "pulau": "",
        "route_create": "https://opsroom.sipongidata.my.id/daops/laporan/groundcheck/create/form",
        "hotspot_date": "2026-09-12",
        "distance_hgu_km": 1.286,
        "zone": "1–3 km",
        "location_status": "OUTSIDE HGU"
      }
    },
    {
      "type": "Feature",
      "geometry": {
        "type": "Point",
        "coordinates": [
          111.06404,
          -0.15581
        ]
      },
      "properties": {
        "confidence": "medium",
        "confidence_value": null,
        "sumber": "NASA-SNPP",
        "date_hotspot": "Senin, 14 September 2026 14:01:00",
        "date_hotspot_ori": "2026-09-14T07:01:00.000000Z",
        "provinsi": null,
        "kabkota": "Sekadau",
        "desa": "Tapang Perodah",
        "hs_id": "2026-09-14T07:01:00.000000Z",
        "provinsi_id": 11,
        "long": 111.06404,
        "ori_sumber": null,
        "desa_id": null,
        "counter": 1,
        "confidence_level": "medium",
        "kawasan": "",
        "kecamatan": "Sekadau Hulu",
        "nama_provinsi": "Kalimantan Barat",
        "pulau": "",
        "route_create": "https://opsroom.sipongidata.my.id/daops/laporan/groundcheck/create/form",
        "hotspot_date": "2026-09-14",
        "distance_hgu_km": 3.165,
        "zone": "3–5 km",
        "location_status": "OUTSIDE HGU"
      }
    },
    {
      "type": "Feature",
      "geometry": {
        "type": "Point",
        "coordinates": [
          111.06959,
          -0.15491
        ]
      },
      "properties": {
        "confidence": "medium",
        "confidence_value": null,
        "sumber": "NASA-SNPP",
        "date_hotspot": "Senin, 14 September 2026 14:01:00",
        "date_hotspot_ori": "2026-09-14T07:01:00.000000Z",
        "provinsi": null,
        "kabkota": "Sekadau",
        "desa": "Nanga Pembubuh",
        "hs_id": "2026-09-14T07:01:00.000000Z",
        "provinsi_id": 11,
        "long": 111.06959,
        "ori_sumber": null,
        "desa_id": null,
        "counter": 1,
        "confidence_level": "medium",
        "kawasan": "",
        "kecamatan": "Sekadau Hulu",
        "nama_provinsi": "Kalimantan Barat",
        "pulau": "",
        "route_create": "https://opsroom.sipongidata.my.id/daops/laporan/groundcheck/create/form",
        "hotspot_date": "2026-09-14",
        "distance_hgu_km": 3.409,
        "zone": "3–5 km",
        "location_status": "OUTSIDE HGU"
      }
    },
    {
      "type": "Feature",
      "geometry": {
        "type": "Point",
        "coordinates": [
          111.06979,
          -0.14464
        ]
      },
      "properties": {
        "confidence": "medium",
        "confidence_value": null,
        "sumber": "NASA-NOAA20",
        "date_hotspot": "Selasa, 01 September 2026 13:25:00",
        "date_hotspot_ori": "2026-09-01T06:25:00.000000Z",
        "provinsi": null,
        "kabkota": "Sekadau",
        "desa": "Nanga Pembubuh",
        "hs_id": "2026-09-01T06:25:00.000000Z",
        "provinsi_id": 11,
        "long": 111.06979,
        "ori_sumber": null,
        "desa_id": null,
        "counter": 1,
        "confidence_level": "medium",
        "kawasan": "",
        "kecamatan": "Sekadau Hulu",
        "nama_provinsi": "Kalimantan Barat",
        "pulau": "",
        "route_create": "https://opsroom.sipongidata.my.id/daops/laporan/groundcheck/create/form",
        "hotspot_date": "2026-09-01",
        "distance_hgu_km": 4.505,
        "zone": "3–5 km",
        "location_status": "OUTSIDE HGU"
      }
    },
    {
      "type": "Feature",
      "geometry": {
        "type": "Point",
        "coordinates": [
          111.0318,
          -0.15372
        ]
      },
      "properties": {
        "confidence": "medium",
        "confidence_value": null,
        "sumber": "NASA-SNPP",
        "date_hotspot": "Minggu, 20 September 2026 13:50:00",
        "date_hotspot_ori": "2026-09-20T06:50:00.000000Z",
        "provinsi": null,
        "kabkota": "Sekadau",
        "desa": "Tapang Perodah",
        "hs_id": "2026-09-20T06:50:00.000000Z",
        "provinsi_id": 11,
        "long": 111.0318,
        "ori_sumber": null,
        "desa_id": null,
        "counter": 1,
        "confidence_level": "medium",
        "kawasan": "",
        "kecamatan": "Sekadau Hulu",
        "nama_provinsi": "Kalimantan Barat",
        "pulau": "",
        "route_create": "https://opsroom.sipongidata.my.id/daops/laporan/groundcheck/create/form",
        "hotspot_date": "2026-09-20",
        "distance_hgu_km": 3.331,
        "zone": "3–5 km",
        "location_status": "OUTSIDE HGU"
      }
    },
    {
      "type": "Feature",
      "geometry": {
        "type": "Point",
        "coordinates": [
          111.04776,
          -0.14574
        ]
      },
      "properties": {
        "confidence": "medium",
        "confidence_value": null,
        "sumber": "NASA-SNPP",
        "date_hotspot": "Minggu, 20 September 2026 13:50:00",
        "date_hotspot_ori": "2026-09-20T06:50:00.000000Z",
        "provinsi": null,
        "kabkota": "Sekadau",
        "desa": "Nanga Pembubuh",
        "hs_id": "2026-09-20T06:50:00.000000Z",
        "provinsi_id": 11,
        "long": 111.04776,
        "ori_sumber": null,
        "desa_id": null,
        "counter": 1,
        "confidence_level": "medium",
        "kawasan": "",
        "kecamatan": "Sekadau Hulu",
        "nama_provinsi": "Kalimantan Barat",
        "pulau": "",
        "route_create": "https://opsroom.sipongidata.my.id/daops/laporan/groundcheck/create/form",
        "hotspot_date": "2026-09-20",
        "distance_hgu_km": 4.177,
        "zone": "3–5 km",
        "location_status": "OUTSIDE HGU"
      }
    },
    {
      "type": "Feature",
      "geometry": {
        "type": "Point",
        "coordinates": [
          111.04846,
          -0.17317
        ]
      },
      "properties": {
        "confidence": "medium",
        "confidence_value": null,
        "sumber": "NASA-SNPP",
        "date_hotspot": "Minggu, 20 September 2026 13:50:00",
        "date_hotspot_ori": "2026-09-20T06:50:00.000000Z",
        "provinsi": null,
        "kabkota": "Sekadau",
        "desa": "Tapang Perodah",
        "hs_id": "2026-09-20T06:50:00.000000Z",
        "provinsi_id": 11,
        "long": 111.04846,
        "ori_sumber": null,
        "desa_id": null,
        "counter": 1,
        "confidence_level": "medium",
        "kawasan": "",
        "kecamatan": "Sekadau Hulu",
        "nama_provinsi": "Kalimantan Barat",
        "pulau": "",
        "route_create": "https://opsroom.sipongidata.my.id/daops/laporan/groundcheck/create/form",
        "hotspot_date": "2026-09-20",
        "distance_hgu_km": 1.211,
        "zone": "1–3 km",
        "location_status": "OUTSIDE HGU"
      }
    },
    {
      "type": "Feature",
      "geometry": {
        "type": "Point",
        "coordinates": [
          111.07284,
          -0.17496
        ]
      },
      "properties": {
        "confidence": "medium",
        "confidence_value": null,
        "sumber": "NASA-SNPP",
        "date_hotspot": "Minggu, 20 September 2026 13:50:00",
        "date_hotspot_ori": "2026-09-20T06:50:00.000000Z",
        "provinsi": null,
        "kabkota": "Sekadau",
        "desa": "Nanga Pembubuh",
        "hs_id": "2026-09-20T06:50:00.000000Z",
        "provinsi_id": 11,
        "long": 111.07284,
        "ori_sumber": null,
        "desa_id": null,
        "counter": 1,
        "confidence_level": "medium",
        "kawasan": "",
        "kecamatan": "Sekadau Hulu",
        "nama_provinsi": "Kalimantan Barat",
        "pulau": "",
        "route_create": "https://opsroom.sipongidata.my.id/daops/laporan/groundcheck/create/form",
        "hotspot_date": "2026-09-20",
        "distance_hgu_km": 1.775,
        "zone": "1–3 km",
        "location_status": "OUTSIDE HGU"
      }
    },
    {
      "type": "Feature",
      "geometry": {
        "type": "Point",
        "coordinates": [
          111.07206,
          -0.1475
        ]
      },
      "properties": {
        "confidence": "medium",
        "confidence_value": null,
        "sumber": "NASA-SNPP",
        "date_hotspot": "Minggu, 20 September 2026 13:50:00",
        "date_hotspot_ori": "2026-09-20T06:50:00.000000Z",
        "provinsi": null,
        "kabkota": "Sekadau",
        "desa": "Nanga Pembubuh",
        "hs_id": "2026-09-20T06:50:00.000000Z",
        "provinsi_id": 11,
        "long": 111.07206,
        "ori_sumber": null,
        "desa_id": null,
        "counter": 1,
        "confidence_level": "medium",
        "kawasan": "",
        "kecamatan": "Sekadau Hulu",
        "nama_provinsi": "Kalimantan Barat",
        "pulau": "",
        "route_create": "https://opsroom.sipongidata.my.id/daops/laporan/groundcheck/create/form",
        "hotspot_date": "2026-09-20",
        "distance_hgu_km": 4.273,
        "zone": "3–5 km",
        "location_status": "OUTSIDE HGU"
      }
    },
    {
      "type": "Feature",
      "geometry": {
        "type": "Point",
        "coordinates": [
          111.06599,
          -0.15811
        ]
      },
      "properties": {
        "confidence": "medium",
        "confidence_value": null,
        "sumber": "NASA-SNPP",
        "date_hotspot": "Senin, 14 September 2026 14:01:00",
        "date_hotspot_ori": "2026-09-14T07:01:00.000000Z",
        "provinsi": null,
        "kabkota": "Sekadau",
        "desa": "Tapang Perodah",
        "hs_id": "2026-09-14T07:01:00.000000Z",
        "provinsi_id": 11,
        "long": 111.06599,
        "ori_sumber": null,
        "desa_id": null,
        "counter": 1,
        "confidence_level": "medium",
        "kawasan": "",
        "kecamatan": "Sekadau Hulu",
        "nama_provinsi": "Kalimantan Barat",
        "pulau": "",
        "route_create": "https://opsroom.sipongidata.my.id/daops/laporan/groundcheck/create/form",
        "hotspot_date": "2026-09-14",
        "distance_hgu_km": 2.958,
        "zone": "1–3 km",
        "location_status": "OUTSIDE HGU"
      }
    },
    {
      "type": "Feature",
      "geometry": {
        "type": "Point",
        "coordinates": [
          111.03926,
          -0.14068
        ]
      },
      "properties": {
        "confidence": "medium",
        "confidence_value": null,
        "sumber": "NASA-SNPP",
        "date_hotspot": "Jumat, 04 September 2026 13:50:00",
        "date_hotspot_ori": "2026-09-04T06:50:00.000000Z",
        "provinsi": null,
        "kabkota": "Sekadau",
        "desa": "Setawar",
        "hs_id": "2026-09-04T06:50:00.000000Z",
        "provinsi_id": 11,
        "long": 111.03926,
        "ori_sumber": null,
        "desa_id": null,
        "counter": 1,
        "confidence_level": "medium",
        "kawasan": "",
        "kecamatan": "Sekadau Hulu",
        "nama_provinsi": "Kalimantan Barat",
        "pulau": "",
        "route_create": "https://opsroom.sipongidata.my.id/daops/laporan/groundcheck/create/form",
        "hotspot_date": "2026-09-04",
        "distance_hgu_km": 4.647,
        "zone": "3–5 km",
        "location_status": "OUTSIDE HGU"
      }
    },
    {
      "type": "Feature",
      "geometry": {
        "type": "Point",
        "coordinates": [
          111.04077,
          -0.14255
        ]
      },
      "properties": {
        "confidence": "medium",
        "confidence_value": null,
        "sumber": "NASA-SNPP",
        "date_hotspot": "Jumat, 04 September 2026 13:50:00",
        "date_hotspot_ori": "2026-09-04T06:50:00.000000Z",
        "provinsi": null,
        "kabkota": "Sekadau",
        "desa": "Setawar",
        "hs_id": "2026-09-04T06:50:00.000000Z",
        "provinsi_id": 11,
        "long": 111.04077,
        "ori_sumber": null,
        "desa_id": null,
        "counter": 1,
        "confidence_level": "medium",
        "kawasan": "",
        "kecamatan": "Sekadau Hulu",
        "nama_provinsi": "Kalimantan Barat",
        "pulau": "",
        "route_create": "https://opsroom.sipongidata.my.id/daops/laporan/groundcheck/create/form",
        "hotspot_date": "2026-09-04",
        "distance_hgu_km": 4.441,
        "zone": "3–5 km",
        "location_status": "OUTSIDE HGU"
      }
    },
    {
      "type": "Feature",
      "geometry": {
        "type": "Point",
        "coordinates": [
          111.09906,
          -0.24
        ]
      },
      "properties": {
        "confidence": "medium",
        "confidence_value": null,
        "sumber": "NASA-NOAA20",
        "date_hotspot": "Jumat, 11 September 2026 13:37:00",
        "date_hotspot_ori": "2026-09-11T06:37:00.000000Z",
        "provinsi": null,
        "kabkota": "Sintang",
        "desa": "Sekubang",
        "hs_id": "2026-09-11T06:37:00.000000Z",
        "provinsi_id": 11,
        "long": 111.09906,
        "ori_sumber": null,
        "desa_id": null,
        "counter": 1,
        "confidence_level": "medium",
        "kawasan": "",
        "kecamatan": "Sepauk",
        "nama_provinsi": "Kalimantan Barat",
        "pulau": "",
        "route_create": "https://opsroom.sipongidata.my.id/daops/laporan/groundcheck/create/form",
        "hotspot_date": "2026-09-11",
        "distance_hgu_km": 4.14,
        "zone": "3–5 km",
        "location_status": "OUTSIDE HGU"
      }
    },
    {
      "type": "Feature",
      "geometry": {
        "type": "Point",
        "coordinates": [
          110.97398,
          -0.17683
        ]
      },
      "properties": {
        "confidence": "medium",
        "confidence_value": null,
        "sumber": "NASA-NOAA20",
        "date_hotspot": "Minggu, 20 September 2026 12:27:00",
        "date_hotspot_ori": "2026-09-20T05:27:00.000000Z",
        "provinsi": null,
        "kabkota": "Sekadau",
        "desa": "Sungaisambang",
        "hs_id": "2026-09-20T05:27:00.000000Z",
        "provinsi_id": 11,
        "long": 110.97398,
        "ori_sumber": null,
        "desa_id": null,
        "counter": 1,
        "confidence_level": "medium",
        "kawasan": "",
        "kecamatan": "Sekadau Hulu",
        "nama_provinsi": "Kalimantan Barat",
        "pulau": "",
        "route_create": "https://opsroom.sipongidata.my.id/daops/laporan/groundcheck/create/form",
        "hotspot_date": "2026-09-20",
        "distance_hgu_km": 3.76,
        "zone": "3–5 km",
        "location_status": "OUTSIDE HGU"
      }
    },
    {
      "type": "Feature",
      "geometry": {
        "type": "Point",
        "coordinates": [
          110.97479,
          -0.17767
        ]
      },
      "properties": {
        "confidence": "medium",
        "confidence_value": null,
        "sumber": "NASA-NOAA20",
        "date_hotspot": "Minggu, 20 September 2026 12:27:00",
        "date_hotspot_ori": "2026-09-20T05:27:00.000000Z",
        "provinsi": null,
        "kabkota": "Sekadau",
        "desa": "Sungaisambang",
        "hs_id": "2026-09-20T05:27:00.000000Z",
        "provinsi_id": 11,
        "long": 110.97479,
        "ori_sumber": null,
        "desa_id": null,
        "counter": 1,
        "confidence_level": "medium",
        "kawasan": "",
        "kecamatan": "Sekadau Hulu",
        "nama_provinsi": "Kalimantan Barat",
        "pulau": "",
        "route_create": "https://opsroom.sipongidata.my.id/daops/laporan/groundcheck/create/form",
        "hotspot_date": "2026-09-20",
        "distance_hgu_km": 3.633,
        "zone": "3–5 km",
        "location_status": "OUTSIDE HGU"
      }
    },
    {
      "type": "Feature",
      "geometry": {
        "type": "Point",
        "coordinates": [
          111.03096,
          -0.14834
        ]
      },
      "properties": {
        "confidence": "medium",
        "confidence_value": null,
        "sumber": "NASA-SNPP",
        "date_hotspot": "Minggu, 20 September 2026 13:50:00",
        "date_hotspot_ori": "2026-09-20T06:50:00.000000Z",
        "provinsi": null,
        "kabkota": "Sekadau",
        "desa": "Setawar",
        "hs_id": "2026-09-20T06:50:00.000000Z",
        "provinsi_id": 11,
        "long": 111.03096,
        "ori_sumber": null,
        "desa_id": null,
        "counter": 1,
        "confidence_level": "medium",
        "kawasan": "",
        "kecamatan": "Sekadau Hulu",
        "nama_provinsi": "Kalimantan Barat",
        "pulau": "",
        "route_create": "https://opsroom.sipongidata.my.id/daops/laporan/groundcheck/create/form",
        "hotspot_date": "2026-09-20",
        "distance_hgu_km": 3.93,
        "zone": "3–5 km",
        "location_status": "OUTSIDE HGU"
      }
    },
    {
      "type": "Feature",
      "geometry": {
        "type": "Point",
        "coordinates": [
          111.0273,
          -0.17185
        ]
      },
      "properties": {
        "confidence": "medium",
        "confidence_value": null,
        "sumber": "NASA-MODIS",
        "date_hotspot": "Senin, 14 September 2026 15:20:00",
        "date_hotspot_ori": "2026-09-14T08:20:00.000000Z",
        "provinsi": null,
        "kabkota": "Sekadau",
        "desa": "Tapang Perodah",
        "hs_id": "2026-09-14T08:20:00.000000Z",
        "provinsi_id": 11,
        "long": 111.0273,
        "ori_sumber": null,
        "desa_id": null,
        "counter": 1,
        "confidence_level": "medium",
        "kawasan": "",
        "kecamatan": "Sekadau Hulu",
        "nama_provinsi": "Kalimantan Barat",
        "pulau": "",
        "route_create": "https://opsroom.sipongidata.my.id/daops/laporan/groundcheck/create/form",
        "hotspot_date": "2026-09-14",
        "distance_hgu_km": 1.73,
        "zone": "1–3 km",
        "location_status": "OUTSIDE HGU"
      }
    },
    {
      "type": "Feature",
      "geometry": {
        "type": "Point",
        "coordinates": [
          111.01762,
          -0.14416
        ]
      },
      "properties": {
        "confidence": "medium",
        "confidence_value": null,
        "sumber": "NASA-MODIS",
        "date_hotspot": "Senin, 14 September 2026 15:20:00",
        "date_hotspot_ori": "2026-09-14T08:20:00.000000Z",
        "provinsi": null,
        "kabkota": "Sekadau",
        "desa": "Setawar",
        "hs_id": "2026-09-14T08:20:00.000000Z",
        "provinsi_id": 11,
        "long": 111.01762,
        "ori_sumber": null,
        "desa_id": null,
        "counter": 1,
        "confidence_level": "medium",
        "kawasan": "",
        "kecamatan": "Sekadau Hulu",
        "nama_provinsi": "Kalimantan Barat",
        "pulau": "",
        "route_create": "https://opsroom.sipongidata.my.id/daops/laporan/groundcheck/create/form",
        "hotspot_date": "2026-09-14",
        "distance_hgu_km": 4.916,
        "zone": "3–5 km",
        "location_status": "OUTSIDE HGU"
      }
    },
    {
      "type": "Feature",
      "geometry": {
        "type": "Point",
        "coordinates": [
          111.02768,
          -0.15165
        ]
      },
      "properties": {
        "confidence": "medium",
        "confidence_value": null,
        "sumber": "NASA-MODIS",
        "date_hotspot": "Senin, 14 September 2026 15:20:00",
        "date_hotspot_ori": "2026-09-14T08:20:00.000000Z",
        "provinsi": null,
        "kabkota": "Sekadau",
        "desa": "Tapang Perodah",
        "hs_id": "2026-09-14T08:20:00.000000Z",
        "provinsi_id": 11,
        "long": 111.02768,
        "ori_sumber": null,
        "desa_id": null,
        "counter": 1,
        "confidence_level": "medium",
        "kawasan": "",
        "kecamatan": "Sekadau Hulu",
        "nama_provinsi": "Kalimantan Barat",
        "pulau": "",
        "route_create": "https://opsroom.sipongidata.my.id/daops/laporan/groundcheck/create/form",
        "hotspot_date": "2026-09-14",
        "distance_hgu_km": 3.688,
        "zone": "3–5 km",
        "location_status": "OUTSIDE HGU"
      }
    },
    {
      "type": "Feature",
      "geometry": {
        "type": "Point",
        "coordinates": [
          110.98229,
          -0.16954
        ]
      },
      "properties": {
        "confidence": "medium",
        "confidence_value": null,
        "sumber": "NASA-MODIS",
        "date_hotspot": "Senin, 14 September 2026 15:20:00",
        "date_hotspot_ori": "2026-09-14T08:20:00.000000Z",
        "provinsi": null,
        "kabkota": "Sekadau",
        "desa": "Sungaisambang",
        "hs_id": "2026-09-14T08:20:00.000000Z",
        "provinsi_id": 11,
        "long": 110.98229,
        "ori_sumber": null,
        "desa_id": null,
        "counter": 1,
        "confidence_level": "medium",
        "kawasan": "",
        "kecamatan": "Sekadau Hulu",
        "nama_provinsi": "Kalimantan Barat",
        "pulau": "",
        "route_create": "https://opsroom.sipongidata.my.id/daops/laporan/groundcheck/create/form",
        "hotspot_date": "2026-09-14",
        "distance_hgu_km": 4.114,
        "zone": "3–5 km",
        "location_status": "OUTSIDE HGU"
      }
    },
    {
      "type": "Feature",
      "geometry": {
        "type": "Point",
        "coordinates": [
          111.026,
          -0.18641
        ]
      },
      "properties": {
        "confidence": "medium",
        "confidence_value": null,
        "sumber": "NASA-MODIS",
        "date_hotspot": "Selasa, 01 September 2026 15:16:00",
        "date_hotspot_ori": "2026-09-01T08:16:00.000000Z",
        "provinsi": null,
        "kabkota": "Sekadau",
        "desa": "Tapang Perodah",
        "hs_id": "2026-09-01T08:16:00.000000Z",
        "provinsi_id": 11,
        "long": 111.026,
        "ori_sumber": null,
        "desa_id": null,
        "counter": 1,
        "confidence_level": "medium",
        "kawasan": "",
        "kecamatan": "Sekadau Hulu",
        "nama_provinsi": "Kalimantan Barat",
        "pulau": "",
        "route_create": "https://opsroom.sipongidata.my.id/daops/laporan/groundcheck/create/form",
        "hotspot_date": "2026-09-01",
        "distance_hgu_km": 0.887,
        "zone": "0–1 km",
        "location_status": "OUTSIDE HGU"
      }
    },
    {
      "type": "Feature",
      "geometry": {
        "type": "Point",
        "coordinates": [
          111.08218,
          -0.19244
        ]
      },
      "properties": {
        "confidence": "high",
        "confidence_value": null,
        "sumber": "NASA-SNPP",
        "date_hotspot": "Minggu, 20 September 2026 13:50:00",
        "date_hotspot_ori": "2026-09-20T06:50:00.000000Z",
        "provinsi": null,
        "kabkota": "Sekadau",
        "desa": "Nanga Pembubuh",
        "hs_id": "2026-09-20T06:50:00.000000Z",
        "provinsi_id": 11,
        "long": 111.08218,
        "ori_sumber": null,
        "desa_id": null,
        "counter": 1,
        "confidence_level": "high",
        "kawasan": "",
        "kecamatan": "Sekadau Hulu",
        "nama_provinsi": "Kalimantan Barat",
        "pulau": "",
        "route_create": "https://opsroom.sipongidata.my.id/daops/laporan/groundcheck/create/form",
        "hotspot_date": "2026-09-20",
        "distance_hgu_km": 1.31,
        "zone": "1–3 km",
        "location_status": "OUTSIDE HGU"
      }
    },
    {
      "type": "Feature",
      "geometry": {
        "type": "Point",
        "coordinates": [
          110.99104,
          -0.16825
        ]
      },
      "properties": {
        "confidence": "high",
        "confidence_value": null,
        "sumber": "NASA-MODIS",
        "date_hotspot": "Senin, 14 September 2026 15:20:00",
        "date_hotspot_ori": "2026-09-14T08:20:00.000000Z",
        "provinsi": null,
        "kabkota": "Sekadau",
        "desa": "Sungaisambang",
        "hs_id": "2026-09-14T08:20:00.000000Z",
        "provinsi_id": 11,
        "long": 110.99104,
        "ori_sumber": null,
        "desa_id": null,
        "counter": 1,
        "confidence_level": "high",
        "kawasan": "",
        "kecamatan": "Sekadau Hulu",
        "nama_provinsi": "Kalimantan Barat",
        "pulau": "",
        "route_create": "https://opsroom.sipongidata.my.id/daops/laporan/groundcheck/create/form",
        "hotspot_date": "2026-09-14",
        "distance_hgu_km": 4.101,
        "zone": "3–5 km",
        "location_status": "OUTSIDE HGU"
      }
    }
  ]
}