{
  "type": "FeatureCollection",
  "name": "pt_btl_sipongi_hotspot_30days",
  "properties": {
    "pt_id": "pt_btl",
    "pt_name": "PT Bumi Tata Lestari",
    "period_start": "2026-08-31",
    "period_end": "2026-09-29",
    "radius_km": 5
  },
  "features": [
    {
      "type": "Feature",
      "geometry": {
        "type": "Point",
        "coordinates": [
          110.69909,
          0.86941
        ]
      },
      "properties": {
        "confidence": "medium",
        "confidence_value": null,
        "sumber": "NASA-MODIS",
        "date_hotspot": "Rabu, 09 September 2026 15:24:00",
        "date_hotspot_ori": "2026-09-09T08:24:00.000000Z",
        "provinsi": null,
        "kabkota": "Sanggau",
        "desa": "Sangai Tekam",
        "hs_id": "2026-09-09T08:24:00.000000Z",
        "provinsi_id": 11,
        "long": 110.69909,
        "ori_sumber": null,
        "desa_id": null,
        "counter": 1,
        "confidence_level": "medium",
        "kawasan": "",
        "kecamatan": "Sekayam",
        "nama_provinsi": "Kalimantan Barat",
        "pulau": "",
        "route_create": "https://opsroom.sipongidata.my.id/daops/laporan/groundcheck/create/form",
        "hotspot_date": "2026-09-09",
        "distance_hgu_km": 2.453,
        "zone": "1–3 km",
        "location_status": "OUTSIDE HGU"
      }
    },
    {
      "type": "Feature",
      "geometry": {
        "type": "Point",
        "coordinates": [
          110.73933,
          0.83887
        ]
      },
      "properties": {
        "confidence": "medium",
        "confidence_value": null,
        "sumber": "NASA-NOAA20",
        "date_hotspot": "Senin, 31 Agustus 2026 01:02:00",
        "date_hotspot_ori": "2026-08-30T18:02:00.000000Z",
        "provinsi": null,
        "kabkota": "Sanggau",
        "desa": "Sangai Tekam",
        "hs_id": "2026-08-30T18:02:00.000000Z",
        "provinsi_id": 11,
        "long": 110.73933,
        "ori_sumber": null,
        "desa_id": null,
        "counter": 2,
        "confidence_level": "medium",
        "kawasan": "",
        "kecamatan": "Sekayam",
        "nama_provinsi": "Kalimantan Barat",
        "pulau": "",
        "route_create": "https://opsroom.sipongidata.my.id/daops/laporan/groundcheck/create/form",
        "hotspot_date": "2026-08-31",
        "distance_hgu_km": 2.164,
        "zone": "1–3 km",
        "location_status": "OUTSIDE HGU"
      }
    },
    {
      "type": "Feature",
      "geometry": {
        "type": "Point",
        "coordinates": [
          110.70451,
          0.82981
        ]
      },
      "properties": {
        "confidence": "medium",
        "confidence_value": null,
        "sumber": "NASA-SNPP",
        "date_hotspot": "Kamis, 03 September 2026 14:07:00",
        "date_hotspot_ori": "2026-09-03T07:07:00.000000Z",
        "provinsi": null,
        "kabkota": "Sanggau",
        "desa": "Sangai Tekam",
        "hs_id": "2026-09-03T07:07:00.000000Z",
        "provinsi_id": 11,
        "long": 110.70451,
        "ori_sumber": null,
        "desa_id": null,
        "counter": 1,
        "confidence_level": "medium",
        "kawasan": "",
        "kecamatan": "Sekayam",
        "nama_provinsi": "Kalimantan Barat",
        "pulau": "",
        "route_create": "https://opsroom.sipongidata.my.id/daops/laporan/groundcheck/create/form",
        "hotspot_date": "2026-09-03",
        "distance_hgu_km": 0.028,
        "zone": "0–1 km",
        "location_status": "OUTSIDE HGU"
      }
    },
    {
      "type": "Feature",
      "geometry": {
        "type": "Point",
        "coordinates": [
          110.70795,
          0.83171
        ]
      },
      "properties": {
        "confidence": "medium",
        "confidence_value": null,
        "sumber": "NASA-SNPP",
        "date_hotspot": "Kamis, 03 September 2026 14:07:00",
        "date_hotspot_ori": "2026-09-03T07:07:00.000000Z",
        "provinsi": null,
        "kabkota": "Sanggau",
        "desa": "Sangai Tekam",
        "hs_id": "2026-09-03T07:07:00.000000Z",
        "provinsi_id": 11,
        "long": 110.70795,
        "ori_sumber": null,
        "desa_id": null,
        "counter": 1,
        "confidence_level": "medium",
        "kawasan": "",
        "kecamatan": "Sekayam",
        "nama_provinsi": "Kalimantan Barat",
        "pulau": "",
        "route_create": "https://opsroom.sipongidata.my.id/daops/laporan/groundcheck/create/form",
        "hotspot_date": "2026-09-03",
        "distance_hgu_km": 0.098,
        "zone": "0–1 km",
        "location_status": "OUTSIDE HGU"
      }
    },
    {
      "type": "Feature",
      "geometry": {
        "type": "Point",
        "coordinates": [
          110.70924,
          0.80087
        ]
      },
      "properties": {
        "confidence": "medium",
        "confidence_value": null,
        "sumber": "NASA-SNPP",
        "date_hotspot": "Minggu, 27 September 2026 00:39:00",
        "date_hotspot_ori": "2026-09-26T17:39:00.000000Z",
        "provinsi": null,
        "kabkota": "Sanggau",
        "desa": "Melenggang",
        "hs_id": "2026-09-26T17:39:00.000000Z",
        "provinsi_id": 11,
        "long": 110.70924,
        "ori_sumber": null,
        "desa_id": null,
        "counter": 1,
        "confidence_level": "medium",
        "kawasan": "",
        "kecamatan": "Sekayam",
        "nama_provinsi": "Kalimantan Barat",
        "pulau": "",
        "route_create": "https://opsroom.sipongidata.my.id/daops/laporan/groundcheck/create/form",
        "hotspot_date": "2026-09-27",
        "distance_hgu_km": 0.0,
        "zone": "Inside HGU",
        "location_status": "INSIDE HGU"
      }
    },
    {
      "type": "Feature",
      "geometry": {
        "type": "Point",
        "coordinates": [
          110.70773,
          0.80169
        ]
      },
      "properties": {
        "confidence": "medium",
        "confidence_value": null,
        "sumber": "NASA-NOAA20",
        "date_hotspot": "Rabu, 09 September 2026 01:34:00",
        "date_hotspot_ori": "2026-09-08T18:34:00.000000Z",
        "provinsi": null,
        "kabkota": "Sanggau",
        "desa": "Melenggang",
        "hs_id": "2026-09-08T18:34:00.000000Z",
        "provinsi_id": 11,
        "long": 110.70773,
        "ori_sumber": null,
        "desa_id": null,
        "counter": 1,
        "confidence_level": "medium",
        "kawasan": "",
        "kecamatan": "Sekayam",
        "nama_provinsi": "Kalimantan Barat",
        "pulau": "",
        "route_create": "https://opsroom.sipongidata.my.id/daops/laporan/groundcheck/create/form",
        "hotspot_date": "2026-09-09",
        "distance_hgu_km": 0.0,
        "zone": "Inside HGU",
        "location_status": "INSIDE HGU"
      }
    },
    {
      "type": "Feature",
      "geometry": {
        "type": "Point",
        "coordinates": [
          110.68259,
          0.83748
        ]
      },
      "properties": {
        "confidence": "medium",
        "confidence_value": null,
        "sumber": "NASA-NOAA20",
        "date_hotspot": "Jumat, 11 September 2026 13:37:00",
        "date_hotspot_ori": "2026-09-11T06:37:00.000000Z",
        "provinsi": null,
        "kabkota": "Sanggau",
        "desa": "Sangai Tekam",
        "hs_id": "2026-09-11T06:37:00.000000Z",
        "provinsi_id": 11,
        "long": 110.68259,
        "ori_sumber": null,
        "desa_id": null,
        "counter": 1,
        "confidence_level": "medium",
        "kawasan": "",
        "kecamatan": "Sekayam",
        "nama_provinsi": "Kalimantan Barat",
        "pulau": "",
        "route_create": "https://opsroom.sipongidata.my.id/daops/laporan/groundcheck/create/form",
        "hotspot_date": "2026-09-11",
        "distance_hgu_km": 0.0,
        "zone": "Inside HGU",
        "location_status": "INSIDE HGU"
      }
    },
    {
      "type": "Feature",
      "geometry": {
        "type": "Point",
        "coordinates": [
          110.7359,
          0.88606
        ]
      },
      "properties": {
        "confidence": "medium",
        "confidence_value": null,
        "sumber": "NASA-NOAA20",
        "date_hotspot": "Senin, 31 Agustus 2026 01:02:00",
        "date_hotspot_ori": "2026-08-30T18:02:00.000000Z",
        "provinsi": null,
        "kabkota": "Sanggau",
        "desa": "Sangai Tekam",
        "hs_id": "2026-08-30T18:02:00.000000Z",
        "provinsi_id": 11,
        "long": 110.7359,
        "ori_sumber": null,
        "desa_id": null,
        "counter": 2,
        "confidence_level": "medium",
        "kawasan": "",
        "kecamatan": "Sekayam",
        "nama_provinsi": "Kalimantan Barat",
        "pulau": "",
        "route_create": "https://opsroom.sipongidata.my.id/daops/laporan/groundcheck/create/form",
        "hotspot_date": "2026-08-31",
        "distance_hgu_km": 4.504,
        "zone": "3–5 km",
        "location_status": "OUTSIDE HGU"
      }
    },
    {
      "type": "Feature",
      "geometry": {
        "type": "Point",
        "coordinates": [
          110.7224,
          0.79844
        ]
      },
      "properties": {
        "confidence": "medium",
        "confidence_value": null,
        "sumber": "NASA-NOAA20",
        "date_hotspot": "Jumat, 25 September 2026 12:33:00",
        "date_hotspot_ori": "2026-09-25T05:33:00.000000Z",
        "provinsi": null,
        "kabkota": "Sanggau",
        "desa": "Melenggang",
        "hs_id": "2026-09-25T05:33:00.000000Z",
        "provinsi_id": 11,
        "long": 110.7224,
        "ori_sumber": null,
        "desa_id": null,
        "counter": 1,
        "confidence_level": "medium",
        "kawasan": "",
        "kecamatan": "Sekayam",
        "nama_provinsi": "Kalimantan Barat",
        "pulau": "",
        "route_create": "https://opsroom.sipongidata.my.id/daops/laporan/groundcheck/create/form",
        "hotspot_date": "2026-09-25",
        "distance_hgu_km": 1.315,
        "zone": "1–3 km",
        "location_status": "OUTSIDE HGU"
      }
    },
    {
      "type": "Feature",
      "geometry": {
        "type": "Point",
        "coordinates": [
          110.70009,
          0.71722
        ]
      },
      "properties": {
        "confidence": "medium",
        "confidence_value": null,
        "sumber": "NASA-NOAA20",
        "date_hotspot": "Selasa, 01 September 2026 13:25:00",
        "date_hotspot_ori": "2026-09-01T06:25:00.000000Z",
        "provinsi": null,
        "kabkota": "Sanggau",
        "desa": "Semongan",
        "hs_id": "2026-09-01T06:25:00.000000Z",
        "provinsi_id": 11,
        "long": 110.70009,
        "ori_sumber": null,
        "desa_id": null,
        "counter": 1,
        "confidence_level": "medium",
        "kawasan": "",
        "kecamatan": "Noyan",
        "nama_provinsi": "Kalimantan Barat",
        "pulau": "",
        "route_create": "https://opsroom.sipongidata.my.id/daops/laporan/groundcheck/create/form",
        "hotspot_date": "2026-09-01",
        "distance_hgu_km": 3.494,
        "zone": "3–5 km",
        "location_status": "OUTSIDE HGU"
      }
    },
    {
      "type": "Feature",
      "geometry": {
        "type": "Point",
        "coordinates": [
          110.7435,
          0.8607
        ]
      },
      "properties": {
        "confidence": "medium",
        "confidence_value": null,
        "sumber": "NASA-NOAA20",
        "date_hotspot": "Selasa, 01 September 2026 13:25:00",
        "date_hotspot_ori": "2026-09-01T06:25:00.000000Z",
        "provinsi": null,
        "kabkota": "Sanggau",
        "desa": "Sangai Tekam",
        "hs_id": "2026-09-01T06:25:00.000000Z",
        "provinsi_id": 11,
        "long": 110.7435,
        "ori_sumber": null,
        "desa_id": null,
        "counter": 1,
        "confidence_level": "medium",
        "kawasan": "",
        "kecamatan": "Sekayam",
        "nama_provinsi": "Kalimantan Barat",
        "pulau": "",
        "route_create": "https://opsroom.sipongidata.my.id/daops/laporan/groundcheck/create/form",
        "hotspot_date": "2026-09-01",
        "distance_hgu_km": 2.945,
        "zone": "1–3 km",
        "location_status": "OUTSIDE HGU"
      }
    },
    {
      "type": "Feature",
      "geometry": {
        "type": "Point",
        "coordinates": [
          110.74113,
          0.85981
        ]
      },
      "properties": {
        "confidence": "medium",
        "confidence_value": null,
        "sumber": "NASA-NOAA20",
        "date_hotspot": "Selasa, 01 September 2026 13:25:00",
        "date_hotspot_ori": "2026-09-01T06:25:00.000000Z",
        "provinsi": null,
        "kabkota": "Sanggau",
        "desa": "Sangai Tekam",
        "hs_id": "2026-09-01T06:25:00.000000Z",
        "provinsi_id": 11,
        "long": 110.74113,
        "ori_sumber": null,
        "desa_id": null,
        "counter": 1,
        "confidence_level": "medium",
        "kawasan": "",
        "kecamatan": "Sekayam",
        "nama_provinsi": "Kalimantan Barat",
        "pulau": "",
        "route_create": "https://opsroom.sipongidata.my.id/daops/laporan/groundcheck/create/form",
        "hotspot_date": "2026-09-01",
        "distance_hgu_km": 2.666,
        "zone": "1–3 km",
        "location_status": "OUTSIDE HGU"
      }
    },
    {
      "type": "Feature",
      "geometry": {
        "type": "Point",
        "coordinates": [
          110.7082,
          0.79879
        ]
      },
      "properties": {
        "confidence": "medium",
        "confidence_value": null,
        "sumber": "NASA-SNPP",
        "date_hotspot": "Rabu, 09 September 2026 01:13:00",
        "date_hotspot_ori": "2026-09-08T18:13:00.000000Z",
        "provinsi": null,
        "kabkota": "Sanggau",
        "desa": "Melenggang",
        "hs_id": "2026-09-08T18:13:00.000000Z",
        "provinsi_id": 11,
        "long": 110.7082,
        "ori_sumber": null,
        "desa_id": null,
        "counter": 1,
        "confidence_level": "medium",
        "kawasan": "",
        "kecamatan": "Sekayam",
        "nama_provinsi": "Kalimantan Barat",
        "pulau": "",
        "route_create": "https://opsroom.sipongidata.my.id/daops/laporan/groundcheck/create/form",
        "hotspot_date": "2026-09-09",
        "distance_hgu_km": 0.0,
        "zone": "Inside HGU",
        "location_status": "INSIDE HGU"
      }
    },
    {
      "type": "Feature",
      "geometry": {
        "type": "Point",
        "coordinates": [
          110.70866,
          0.80041
        ]
      },
      "properties": {
        "confidence": "medium",
        "confidence_value": null,
        "sumber": "NASA-SNPP",
        "date_hotspot": "Minggu, 06 September 2026 00:30:00",
        "date_hotspot_ori": "2026-09-05T17:30:00.000000Z",
        "provinsi": null,
        "kabkota": "Sanggau",
        "desa": "Melenggang",
        "hs_id": "2026-09-05T17:30:00.000000Z",
        "provinsi_id": 11,
        "long": 110.70866,
        "ori_sumber": null,
        "desa_id": null,
        "counter": 1,
        "confidence_level": "medium",
        "kawasan": "",
        "kecamatan": "Sekayam",
        "nama_provinsi": "Kalimantan Barat",
        "pulau": "",
        "route_create": "https://opsroom.sipongidata.my.id/daops/laporan/groundcheck/create/form",
        "hotspot_date": "2026-09-06",
        "distance_hgu_km": 0.0,
        "zone": "Inside HGU",
        "location_status": "INSIDE HGU"
      }
    },
    {
      "type": "Feature",
      "geometry": {
        "type": "Point",
        "coordinates": [
          110.73534,
          0.88269
        ]
      },
      "properties": {
        "confidence": "medium",
        "confidence_value": null,
        "sumber": "NASA-NOAA20",
        "date_hotspot": "Senin, 31 Agustus 2026 01:02:00",
        "date_hotspot_ori": "2026-08-30T18:02:00.000000Z",
        "provinsi": null,
        "kabkota": "Sanggau",
        "desa": "Sangai Tekam",
        "hs_id": "2026-08-30T18:02:00.000000Z",
        "provinsi_id": 11,
        "long": 110.73534,
        "ori_sumber": null,
        "desa_id": null,
        "counter": 2,
        "confidence_level": "medium",
        "kawasan": "",
        "kecamatan": "Sekayam",
        "nama_provinsi": "Kalimantan Barat",
        "pulau": "",
        "route_create": "https://opsroom.sipongidata.my.id/daops/laporan/groundcheck/create/form",
        "hotspot_date": "2026-08-31",
        "distance_hgu_km": 4.138,
        "zone": "3–5 km",
        "location_status": "OUTSIDE HGU"
      }
    },
    {
      "type": "Feature",
      "geometry": {
        "type": "Point",
        "coordinates": [
          110.73566,
          0.88815
        ]
      },
      "properties": {
        "confidence": "medium",
        "confidence_value": null,
        "sumber": "NASA-SNPP",
        "date_hotspot": "Senin, 31 Agustus 2026 00:43:00",
        "date_hotspot_ori": "2026-08-30T17:43:00.000000Z",
        "provinsi": null,
        "kabkota": "Sanggau",
        "desa": "Sangai Tekam",
        "hs_id": "2026-08-30T17:43:00.000000Z",
        "provinsi_id": 11,
        "long": 110.73566,
        "ori_sumber": null,
        "desa_id": null,
        "counter": 2,
        "confidence_level": "medium",
        "kawasan": "",
        "kecamatan": "Sekayam",
        "nama_provinsi": "Kalimantan Barat",
        "pulau": "",
        "route_create": "https://opsroom.sipongidata.my.id/daops/laporan/groundcheck/create/form",
        "hotspot_date": "2026-08-31",
        "distance_hgu_km": 4.707,
        "zone": "3–5 km",
        "location_status": "OUTSIDE HGU"
      }
    },
    {
      "type": "Feature",
      "geometry": {
        "type": "Point",
        "coordinates": [
          110.73455,
          0.88327
        ]
      },
      "properties": {
        "confidence": "medium",
        "confidence_value": null,
        "sumber": "NASA-SNPP",
        "date_hotspot": "Senin, 31 Agustus 2026 00:43:00",
        "date_hotspot_ori": "2026-08-30T17:43:00.000000Z",
        "provinsi": null,
        "kabkota": "Sanggau",
        "desa": "Sangai Tekam",
        "hs_id": "2026-08-30T17:43:00.000000Z",
        "provinsi_id": 11,
        "long": 110.73455,
        "ori_sumber": null,
        "desa_id": null,
        "counter": 2,
        "confidence_level": "medium",
        "kawasan": "",
        "kecamatan": "Sekayam",
        "nama_provinsi": "Kalimantan Barat",
        "pulau": "",
        "route_create": "https://opsroom.sipongidata.my.id/daops/laporan/groundcheck/create/form",
        "hotspot_date": "2026-08-31",
        "distance_hgu_km": 4.161,
        "zone": "3–5 km",
        "location_status": "OUTSIDE HGU"
      }
    },
    {
      "type": "Feature",
      "geometry": {
        "type": "Point",
        "coordinates": [
          110.73231,
          0.88662
        ]
      },
      "properties": {
        "confidence": "medium",
        "confidence_value": null,
        "sumber": "NASA-NOAA20",
        "date_hotspot": "Senin, 31 Agustus 2026 01:02:00",
        "date_hotspot_ori": "2026-08-30T18:02:00.000000Z",
        "provinsi": null,
        "kabkota": "Sanggau",
        "desa": "Sangai Tekam",
        "hs_id": "2026-08-30T18:02:00.000000Z",
        "provinsi_id": 11,
        "long": 110.73231,
        "ori_sumber": null,
        "desa_id": null,
        "counter": 2,
        "confidence_level": "medium",
        "kawasan": "",
        "kecamatan": "Sekayam",
        "nama_provinsi": "Kalimantan Barat",
        "pulau": "",
        "route_create": "https://opsroom.sipongidata.my.id/daops/laporan/groundcheck/create/form",
        "hotspot_date": "2026-08-31",
        "distance_hgu_km": 4.42,
        "zone": "3–5 km",
        "location_status": "OUTSIDE HGU"
      }
    },
    {
      "type": "Feature",
      "geometry": {
        "type": "Point",
        "coordinates": [
          110.73757,
          0.88644
        ]
      },
      "properties": {
        "confidence": "medium",
        "confidence_value": null,
        "sumber": "NASA-NOAA20",
        "date_hotspot": "Selasa, 01 September 2026 00:43:00",
        "date_hotspot_ori": "2026-08-31T17:43:00.000000Z",
        "provinsi": null,
        "kabkota": "Sanggau",
        "desa": "Sangai Tekam",
        "hs_id": "2026-08-31T17:43:00.000000Z",
        "provinsi_id": 11,
        "long": 110.73757,
        "ori_sumber": null,
        "desa_id": null,
        "counter": 3,
        "confidence_level": "medium",
        "kawasan": "",
        "kecamatan": "Sekayam",
        "nama_provinsi": "Kalimantan Barat",
        "pulau": "",
        "route_create": "https://opsroom.sipongidata.my.id/daops/laporan/groundcheck/create/form",
        "hotspot_date": "2026-09-01",
        "distance_hgu_km": 4.618,
        "zone": "3–5 km",
        "location_status": "OUTSIDE HGU"
      }
    },
    {
      "type": "Feature",
      "geometry": {
        "type": "Point",
        "coordinates": [
          110.70859,
          0.80014
        ]
      },
      "properties": {
        "confidence": "medium",
        "confidence_value": null,
        "sumber": "NASA-NOAA20",
        "date_hotspot": "Kamis, 03 September 2026 01:45:00",
        "date_hotspot_ori": "2026-09-02T18:45:00.000000Z",
        "provinsi": null,
        "kabkota": "Sanggau",
        "desa": "Melenggang",
        "hs_id": "2026-09-02T18:45:00.000000Z",
        "provinsi_id": 11,
        "long": 110.70859,
        "ori_sumber": null,
        "desa_id": null,
        "counter": 1,
        "confidence_level": "medium",
        "kawasan": "",
        "kecamatan": "Sekayam",
        "nama_provinsi": "Kalimantan Barat",
        "pulau": "",
        "route_create": "https://opsroom.sipongidata.my.id/daops/laporan/groundcheck/create/form",
        "hotspot_date": "2026-09-03",
        "distance_hgu_km": 0.0,
        "zone": "Inside HGU",
        "location_status": "INSIDE HGU"
      }
    },
    {
      "type": "Feature",
      "geometry": {
        "type": "Point",
        "coordinates": [
          110.70786,
          0.80063
        ]
      },
      "properties": {
        "confidence": "medium",
        "confidence_value": null,
        "sumber": "NASA-NOAA20",
        "date_hotspot": "Minggu, 27 September 2026 00:56:00",
        "date_hotspot_ori": "2026-09-26T17:56:00.000000Z",
        "provinsi": null,
        "kabkota": "Sanggau",
        "desa": "Melenggang",
        "hs_id": "2026-09-26T17:56:00.000000Z",
        "provinsi_id": 11,
        "long": 110.70786,
        "ori_sumber": null,
        "desa_id": null,
        "counter": 1,
        "confidence_level": "medium",
        "kawasan": "",
        "kecamatan": "Sekayam",
        "nama_provinsi": "Kalimantan Barat",
        "pulau": "",
        "route_create": "https://opsroom.sipongidata.my.id/daops/laporan/groundcheck/create/form",
        "hotspot_date": "2026-09-27",
        "distance_hgu_km": 0.0,
        "zone": "Inside HGU",
        "location_status": "INSIDE HGU"
      }
    },
    {
      "type": "Feature",
      "geometry": {
        "type": "Point",
        "coordinates": [
          110.73332,
          0.8871
        ]
      },
      "properties": {
        "confidence": "medium",
        "confidence_value": null,
        "sumber": "NASA-NOAA20",
        "date_hotspot": "Selasa, 01 September 2026 00:43:00",
        "date_hotspot_ori": "2026-08-31T17:43:00.000000Z",
        "provinsi": null,
        "kabkota": "Sanggau",
        "desa": "Sangai Tekam",
        "hs_id": "2026-08-31T17:43:00.000000Z",
        "provinsi_id": 11,
        "long": 110.73332,
        "ori_sumber": null,
        "desa_id": null,
        "counter": 3,
        "confidence_level": "medium",
        "kawasan": "",
        "kecamatan": "Sekayam",
        "nama_provinsi": "Kalimantan Barat",
        "pulau": "",
        "route_create": "https://opsroom.sipongidata.my.id/daops/laporan/groundcheck/create/form",
        "hotspot_date": "2026-09-01",
        "distance_hgu_km": 4.506,
        "zone": "3–5 km",
        "location_status": "OUTSIDE HGU"
      }
    },
    {
      "type": "Feature",
      "geometry": {
        "type": "Point",
        "coordinates": [
          110.73384,
          0.88825
        ]
      },
      "properties": {
        "confidence": "medium",
        "confidence_value": null,
        "sumber": "NASA-NOAA20",
        "date_hotspot": "Rabu, 02 September 2026 00:24:00",
        "date_hotspot_ori": "2026-09-01T17:24:00.000000Z",
        "provinsi": null,
        "kabkota": "Sanggau",
        "desa": "Sangai Tekam",
        "hs_id": "2026-09-01T17:24:00.000000Z",
        "provinsi_id": 11,
        "long": 110.73384,
        "ori_sumber": null,
        "desa_id": null,
        "counter": 4,
        "confidence_level": "medium",
        "kawasan": "",
        "kecamatan": "Sekayam",
        "nama_provinsi": "Kalimantan Barat",
        "pulau": "",
        "route_create": "https://opsroom.sipongidata.my.id/daops/laporan/groundcheck/create/form",
        "hotspot_date": "2026-09-02",
        "distance_hgu_km": 4.646,
        "zone": "3–5 km",
        "location_status": "OUTSIDE HGU"
      }
    },
    {
      "type": "Feature",
      "geometry": {
        "type": "Point",
        "coordinates": [
          110.68036,
          0.83955
        ]
      },
      "properties": {
        "confidence": "medium",
        "confidence_value": null,
        "sumber": "NASA-SNPP",
        "date_hotspot": "Jumat, 11 September 2026 13:18:00",
        "date_hotspot_ori": "2026-09-11T06:18:00.000000Z",
        "provinsi": null,
        "kabkota": "Sanggau",
        "desa": "Sangai Tekam",
        "hs_id": "2026-09-11T06:18:00.000000Z",
        "provinsi_id": 11,
        "long": 110.68036,
        "ori_sumber": null,
        "desa_id": null,
        "counter": 1,
        "confidence_level": "medium",
        "kawasan": "",
        "kecamatan": "Sekayam",
        "nama_provinsi": "Kalimantan Barat",
        "pulau": "",
        "route_create": "https://opsroom.sipongidata.my.id/daops/laporan/groundcheck/create/form",
        "hotspot_date": "2026-09-11",
        "distance_hgu_km": 0.0,
        "zone": "Inside HGU",
        "location_status": "INSIDE HGU"
      }
    },
    {
      "type": "Feature",
      "geometry": {
        "type": "Point",
        "coordinates": [
          110.68118,
          0.83782
        ]
      },
      "properties": {
        "confidence": "medium",
        "confidence_value": null,
        "sumber": "NASA-SNPP",
        "date_hotspot": "Jumat, 11 September 2026 13:18:00",
        "date_hotspot_ori": "2026-09-11T06:18:00.000000Z",
        "provinsi": null,
        "kabkota": "Sanggau",
        "desa": "Sangai Tekam",
        "hs_id": "2026-09-11T06:18:00.000000Z",
        "provinsi_id": 11,
        "long": 110.68118,
        "ori_sumber": null,
        "desa_id": null,
        "counter": 1,
        "confidence_level": "medium",
        "kawasan": "",
        "kecamatan": "Sekayam",
        "nama_provinsi": "Kalimantan Barat",
        "pulau": "",
        "route_create": "https://opsroom.sipongidata.my.id/daops/laporan/groundcheck/create/form",
        "hotspot_date": "2026-09-11",
        "distance_hgu_km": 0.0,
        "zone": "Inside HGU",
        "location_status": "INSIDE HGU"
      }
    },
    {
      "type": "Feature",
      "geometry": {
        "type": "Point",
        "coordinates": [
          110.72057,
          0.79889
        ]
      },
      "properties": {
        "confidence": "medium",
        "confidence_value": null,
        "sumber": "NASA-NOAA20",
        "date_hotspot": "Jumat, 11 September 2026 13:37:00",
        "date_hotspot_ori": "2026-09-11T06:37:00.000000Z",
        "provinsi": null,
        "kabkota": "Sanggau",
        "desa": "Melenggang",
        "hs_id": "2026-09-11T06:37:00.000000Z",
        "provinsi_id": 11,
        "long": 110.72057,
        "ori_sumber": null,
        "desa_id": null,
        "counter": 1,
        "confidence_level": "medium",
        "kawasan": "",
        "kecamatan": "Sekayam",
        "nama_provinsi": "Kalimantan Barat",
        "pulau": "",
        "route_create": "https://opsroom.sipongidata.my.id/daops/laporan/groundcheck/create/form",
        "hotspot_date": "2026-09-11",
        "distance_hgu_km": 1.137,
        "zone": "1–3 km",
        "location_status": "OUTSIDE HGU"
      }
    },
    {
      "type": "Feature",
      "geometry": {
        "type": "Point",
        "coordinates": [
          110.62138,
          0.81193
        ]
      },
      "properties": {
        "confidence": "medium",
        "confidence_value": null,
        "sumber": "NASA-NOAA20",
        "date_hotspot": "Minggu, 06 September 2026 13:31:00",
        "date_hotspot_ori": "2026-09-06T06:31:00.000000Z",
        "provinsi": null,
        "kabkota": "Sanggau",
        "desa": "Noyan",
        "hs_id": "2026-09-06T06:31:00.000000Z",
        "provinsi_id": 11,
        "long": 110.62138,
        "ori_sumber": null,
        "desa_id": null,
        "counter": 1,
        "confidence_level": "medium",
        "kawasan": "",
        "kecamatan": "Noyan",
        "nama_provinsi": "Kalimantan Barat",
        "pulau": "",
        "route_create": "https://opsroom.sipongidata.my.id/daops/laporan/groundcheck/create/form",
        "hotspot_date": "2026-09-06",
        "distance_hgu_km": 1.67,
        "zone": "1–3 km",
        "location_status": "OUTSIDE HGU"
      }
    },
    {
      "type": "Feature",
      "geometry": {
        "type": "Point",
        "coordinates": [
          110.73765,
          0.88595
        ]
      },
      "properties": {
        "confidence": "medium",
        "confidence_value": null,
        "sumber": "NASA-SNPP",
        "date_hotspot": "Senin, 31 Agustus 2026 13:22:00",
        "date_hotspot_ori": "2026-08-31T06:22:00.000000Z",
        "provinsi": null,
        "kabkota": "Sanggau",
        "desa": "Sangai Tekam",
        "hs_id": "2026-08-31T06:22:00.000000Z",
        "provinsi_id": 11,
        "long": 110.73765,
        "ori_sumber": null,
        "desa_id": null,
        "counter": 2,
        "confidence_level": "medium",
        "kawasan": "",
        "kecamatan": "Sekayam",
        "nama_provinsi": "Kalimantan Barat",
        "pulau": "",
        "route_create": "https://opsroom.sipongidata.my.id/daops/laporan/groundcheck/create/form",
        "hotspot_date": "2026-08-31",
        "distance_hgu_km": 4.573,
        "zone": "3–5 km",
        "location_status": "OUTSIDE HGU"
      }
    },
    {
      "type": "Feature",
      "geometry": {
        "type": "Point",
        "coordinates": [
          110.73277,
          0.88352
        ]
      },
      "properties": {
        "confidence": "medium",
        "confidence_value": null,
        "sumber": "NASA-SNPP",
        "date_hotspot": "Selasa, 01 September 2026 00:24:00",
        "date_hotspot_ori": "2026-08-31T17:24:00.000000Z",
        "provinsi": null,
        "kabkota": "Sanggau",
        "desa": "Sangai Tekam",
        "hs_id": "2026-08-31T17:24:00.000000Z",
        "provinsi_id": 11,
        "long": 110.73277,
        "ori_sumber": null,
        "desa_id": null,
        "counter": 3,
        "confidence_level": "medium",
        "kawasan": "",
        "kecamatan": "Sekayam",
        "nama_provinsi": "Kalimantan Barat",
        "pulau": "",
        "route_create": "https://opsroom.sipongidata.my.id/daops/laporan/groundcheck/create/form",
        "hotspot_date": "2026-09-01",
        "distance_hgu_km": 4.114,
        "zone": "3–5 km",
        "location_status": "OUTSIDE HGU"
      }
    },
    {
      "type": "Feature",
      "geometry": {
        "type": "Point",
        "coordinates": [
          110.74339,
          0.81427
        ]
      },
      "properties": {
        "confidence": "medium",
        "confidence_value": null,
        "sumber": "NASA-SNPP",
        "date_hotspot": "Rabu, 09 September 2026 13:57:00",
        "date_hotspot_ori": "2026-09-09T06:57:00.000000Z",
        "provinsi": null,
        "kabkota": "Sanggau",
        "desa": "Melenggang",
        "hs_id": "2026-09-09T06:57:00.000000Z",
        "provinsi_id": 11,
        "long": 110.74339,
        "ori_sumber": null,
        "desa_id": null,
        "counter": 1,
        "confidence_level": "medium",
        "kawasan": "",
        "kecamatan": "Sekayam",
        "nama_provinsi": "Kalimantan Barat",
        "pulau": "",
        "route_create": "https://opsroom.sipongidata.my.id/daops/laporan/groundcheck/create/form",
        "hotspot_date": "2026-09-09",
        "distance_hgu_km": 3.523,
        "zone": "3–5 km",
        "location_status": "OUTSIDE HGU"
      }
    },
    {
      "type": "Feature",
      "geometry": {
        "type": "Point",
        "coordinates": [
          110.73583,
          0.8838
        ]
      },
      "properties": {
        "confidence": "medium",
        "confidence_value": null,
        "sumber": "NASA-SNPP",
        "date_hotspot": "Senin, 14 September 2026 01:19:00",
        "date_hotspot_ori": "2026-09-13T18:19:00.000000Z",
        "provinsi": null,
        "kabkota": "Sanggau",
        "desa": "Sangai Tekam",
        "hs_id": "2026-09-13T18:19:00.000000Z",
        "provinsi_id": 11,
        "long": 110.73583,
        "ori_sumber": null,
        "desa_id": null,
        "counter": 1,
        "confidence_level": "medium",
        "kawasan": "",
        "kecamatan": "Sekayam",
        "nama_provinsi": "Kalimantan Barat",
        "pulau": "",
        "route_create": "https://opsroom.sipongidata.my.id/daops/laporan/groundcheck/create/form",
        "hotspot_date": "2026-09-14",
        "distance_hgu_km": 4.272,
        "zone": "3–5 km",
        "location_status": "OUTSIDE HGU"
      }
    },
    {
      "type": "Feature",
      "geometry": {
        "type": "Point",
        "coordinates": [
          110.73067,
          0.88831
        ]
      },
      "properties": {
        "confidence": "high",
        "confidence_value": null,
        "sumber": "NASA-MODIS",
        "date_hotspot": "Senin, 31 Agustus 2026 19:59:00",
        "date_hotspot_ori": "2026-08-31T12:59:00.000000Z",
        "provinsi": null,
        "kabkota": "Sanggau",
        "desa": "Sangai Tekam",
        "hs_id": "2026-08-31T12:59:00.000000Z",
        "provinsi_id": 11,
        "long": 110.73067,
        "ori_sumber": null,
        "desa_id": null,
        "counter": 2,
        "confidence_level": "high",
        "kawasan": "",
        "kecamatan": "Sekayam",
        "nama_provinsi": "Kalimantan Barat",
        "pulau": "",
        "route_create": "https://opsroom.sipongidata.my.id/daops/laporan/groundcheck/create/form",
        "hotspot_date": "2026-08-31",
        "distance_hgu_km": 4.546,
        "zone": "3–5 km",
        "location_status": "OUTSIDE HGU"
      }
    },
    {
      "type": "Feature",
      "geometry": {
        "type": "Point",
        "coordinates": [
          110.73227,
          0.72765
        ]
      },
      "properties": {
        "confidence": "high",
        "confidence_value": null,
        "sumber": "NASA-MODIS",
        "date_hotspot": "Rabu, 09 September 2026 15:24:00",
        "date_hotspot_ori": "2026-09-09T08:24:00.000000Z",
        "provinsi": null,
        "kabkota": "Sanggau",
        "desa": "Melenggang",
        "hs_id": "2026-09-09T08:24:00.000000Z",
        "provinsi_id": 11,
        "long": 110.73227,
        "ori_sumber": null,
        "desa_id": null,
        "counter": 1,
        "confidence_level": "high",
        "kawasan": "",
        "kecamatan": "Sekayam",
        "nama_provinsi": "Kalimantan Barat",
        "pulau": "",
        "route_create": "https://opsroom.sipongidata.my.id/daops/laporan/groundcheck/create/form",
        "hotspot_date": "2026-09-09",
        "distance_hgu_km": 4.704,
        "zone": "3–5 km",
        "location_status": "OUTSIDE HGU"
      }
    }
  ]
}